[{"OBJECT_NAME":"STARLINK-6215","OBJECT_ID":"2023-099AR","EPOCH":"2026-03-09T22:00:01.999584","MEAN_MOTION":15.14592459,"ECCENTRICITY":0.00010726,"INCLINATION":43.0008,"RA_OF_ASC_NODE":221.1612,"ARG_OF_PERICENTER":297.0481,"MEAN_ANOMALY":176.8497,"EPHEMERIS_TYPE":0,"CLASSIFICATION_TYPE":"U","NORAD_CAT_ID":57367,"ELEMENT_SET_NO":999,"REV_AT_EPOCH":572,"BSTAR":0.062021398,"MEAN_MOTION_DOT":0.01260474,"MEAN_MOTION_DDOT":0},{"OBJECT_NAME":"FOSSASAT-2E19 (TAT-E)","OBJECT_ID":"2025-009BV","EPOCH":"2026-03-09T22:59:53.759040","MEAN_MOTION":15.20582164,"ECCENTRICITY":0.00044202,"INCLINATION":97.4006,"RA_OF_ASC_NODE":149.0282,"ARG_OF_PERICENTER":342.8733,"MEAN_ANOMALY":17.2352,"EPHEMERIS_TYPE":0,"CLASSIFICATION_TYPE":"U","NORAD_CAT_ID":62676,"ELEMENT_SET_NO":999,"REV_AT_EPOCH":6361,"BSTAR":0.00019157896,"MEAN_MOTION_DOT":4.129e-5,"MEAN_MOTION_DDOT":0}]
